NORAD_CAT_ID,OBJECT_NAME,OBJECT_TYPE,EPOCH,MEAN_MOTION,ECCENTRICITY,INCLINATION,RA_OF_ASC_NODE,ARG_OF_PERICENTER,MEAN_ANOMALY,BSTAR,MEAN_MOTION_DOT,MEAN_MOTION_DDOT,TLE_LINE0,TLE_LINE1,TLE_LINE2,SEMIMAJOR_AXIS,PERIOD,APOGEE,PERIGEE,DECAYED
49137.0,STARLINK-3055,PAYLOAD,2022-03-10 14:00:01,15.01553825,0.0003267,69.9978,354.9394,278.1024,326.0308,0.0033941,0.00044231,0.0,0 STARLINK-3055,1 49137U 21082H   22069.58334491  .00044231  00000-0  33941-2 0  9999,2 49137  69.9978 354.9394 0003267 278.1024 326.0308 15.01553825  3610,6940.241,95.901,564.374,559.839,0.0
49137.0,STARLINK-3055,PAYLOAD,2022-03-10 22:00:01,15.01614938,0.00033,69.998,354.0946,277.6318,327.9361,-0.0030216,-0.00039158,0.0,0 STARLINK-3055,1 49137U 21082H   22069.91668981 -.00039158  00000-0 -30216-2 0  9996,2 49137  69.9980 354.0946 0003300 277.6318 327.9361 15.01614938  3617,6940.053000000001,95.897,564.2080000000002,559.628,0.0
49137.0,STARLINK-3055,PAYLOAD,2022-03-11 06:00:00,15.01584639,0.0003315,69.9978,353.2497,283.0822,323.8378,0.0028528,0.00037155,0.0,0 STARLINK-3055,1 49137U 21082H   22070.25001157  .00037155  00000-0  28528-2 0  9997,2 49137  69.9978 353.2497 0003315 283.0822 323.8378 15.01584639 27885,6940.146,95.899,564.312,559.711,0.0
49137.0,STARLINK-3055,PAYLOAD,2022-03-11 14:00:01,15.01586763,0.0003281,69.9979,352.4048,277.8525,330.4890000000001,0.00078503,0.00010116,0.0,0 STARLINK-3055,1 49137U 21082H   22070.58334491  .00010116  00000-0  78503-3 0  9990,2 49137  69.9979 352.4048 0003281 277.8525 330.4890 15.01586763  3597,6940.14,95.899,564.2819999999998,559.7280000000002,0.0
49137.0,STARLINK-3055,PAYLOAD,2022-03-11 22:00:00,15.01603258,0.0003111,69.9982,351.56,279.1404,330.535,-0.003445,-0.00044583,0.0,0 STARLINK-3055,1 49137U 21082H   22070.91667824 -.00044583  00000-0 -34450-2 0  9995,2 49137  69.9982 351.5600 0003111 279.1404 330.5350 15.01603258 27988,6940.089,95.898,564.113,559.795,0.0
49137.0,STARLINK-3055,PAYLOAD,2022-03-12 06:00:00,15.01585089,0.0003098,69.9978,350.7152,284.5649,326.5242,0.0024776,0.00032233,0.0,0 STARLINK-3055,1 49137U 21082H   22071.25001157  .00032233  00000-0  24776-2 0  9991,2 49137  69.9978 350.7152 0003098 284.5649 326.5242 15.01585089 28034,6940.145,95.899,564.16,559.86,0.0
49137.0,STARLINK-3055,PAYLOAD,2022-03-12 14:00:01,15.01581211,0.0002968,69.9981,349.8695,278.4943,334.0161,0.0042638,0.0005572,0.0,0 STARLINK-3055,1 49137U 21082H   22071.58334491  .00055720  00000-0  42638-2 0  9990,2 49137  69.9981 349.8695 0002968 278.4943 334.0161 15.01581211  3617,6940.156999999997,95.899,564.082,559.962,0.0
49137.0,STARLINK-3055,PAYLOAD,2022-03-12 22:00:00,15.01700924,0.000301,69.9993,349.0218,279.2895,334.524,-0.032517,-0.00400556,0.0,0 STARLINK-3055,1 49137U 21082H   22071.91667824 -.00400556  00000-0 -32517-1 0  9993,2 49137  69.9993 349.0218 0003010 279.2895 334.5240 15.01700924 28138,6939.788000000001,95.891,563.742,559.564,0.0
49137.0,STARLINK-3055,PAYLOAD,2022-03-13 14:00:01,15.01062785,0.0003152,69.9999,347.3281,277.0204,339.0487,-0.055022,-0.00659396,0.0,0 STARLINK-3055,1 49137U 21082H   22072.58334491 -.00659396  00000-0 -55022-1 0  9992,2 49137  69.9999 347.3281 0003152 277.0204 339.0487 15.01062785 28232,6941.755,95.932,565.808,561.432,0.0
49137.0,STARLINK-3055,PAYLOAD,2022-03-13 22:00:01,15.00597716,0.0003314,70.0002,346.4832,286.3019,330.3093,-0.056124,-0.00664115,0.0,0 STARLINK-3055,1 49137U 21082H   22072.91668981 -.00664115  00000-0 -56124-1 0  9992,2 49137  70.0002 346.4832 0003314 286.3019 330.3093 15.00597716  3617,6943.189,95.962,567.355,562.753,0.0
49137.0,STARLINK-3055,PAYLOAD,2022-03-14 14:00:01,14.99660094,0.0003153,69.9999,344.7953,277.0847,338.8059,-0.057054,-0.00659038,0.0,0 STARLINK-3055,1 49137U 21082H   22073.58335648 -.00659038  00000-0 -57054-1 0  9998,2 49137  69.9999 344.7953 0003153 277.0847 338.8059 14.99660094 28384,6946.083000000001,96.022,570.138,565.758,0.0
49137.0,STARLINK-3055,PAYLOAD,2022-03-14 22:00:00,14.99195005,0.0003313,70.0002,343.9524,286.731,327.8948,-0.058182,-0.00663649,0.0,0 STARLINK-3055,1 49137U 21082H   22073.91667824 -.00663649  00000-0 -58182-1 0  9995,2 49137  70.0002 343.9524 0003313 286.7310 327.8948 14.99195005  3593,6947.519,96.052,571.686,567.0830000000002,0.0
49137.0,STARLINK-3055,PAYLOAD,2022-03-15 02:00:01,14.98962866,0.000345,70.0001,343.5312,290.1731,143.6409,-0.058779,-0.00666247,0.0,0 STARLINK-3055,1 49137U 21082H   22074.08334491 -.00666247  00000-0 -58779-1 0  9994,2 49137  70.0001 343.5312 0003450 290.1731 143.6409 14.98962866 28466,6948.236,96.066,572.499,567.7040000000002,0.0
49137.0,STARLINK-3055,PAYLOAD,2022-03-15 22:00:00,14.97792148,0.0003264,70.0002,341.4271,286.0037,321.6535,-0.060291,-0.00663082,0.0,0 STARLINK-3055,1 49137U 21082H   22074.91667824 -.00663082  00000-0 -60291-1 0  9991,2 49137  70.0002 341.4271 0003264 286.0037 321.6535 14.97792148  3592,6951.857,96.142,575.991,571.453,0.0
49137.0,STARLINK-3055,PAYLOAD,2022-03-16 06:00:00,14.97316901,0.0003319,69.9998,340.5868,287.8945,316.32,-0.059342,-0.00645809,0.0,0 STARLINK-3055,1 49137U 21082H   22075.25001157 -.00645809  00000-0 -59342-1 0  9992,2 49137  69.9998 340.5868 0003319 287.8945 316.3200 14.97316901 28634,6953.328,96.172,577.5,572.885,0.0
49137.0,STARLINK-3055,PAYLOAD,2022-03-16 14:00:01,14.96743276,0.0003134,70.0,339.7475,277.3426,322.8781,-0.0039158,-0.00044658,0.0,0 STARLINK-3055,1 49137U 21082H   22075.58334491 -.00044658  00000-0 -39158-2 0  9997,2 49137  70.0000 339.7475 0003134 277.3426 322.8781 14.96743276 28687,6955.104,96.209,579.149,574.789,0.0
49137.0,STARLINK-3055,PAYLOAD,2022-03-16 20:00:01,14.96679048,0.0003248,69.9997,339.1196,282.8502,224.0616,0.0051154,0.000589,0.0,0 STARLINK-3055,1 49137U 21082H   22075.83334491  .00058900  00000-0  51154-2 0  9998,2 49137  69.9997 339.1196 0003248 282.8502 224.0616 14.96679048  3582,6955.303000000001,96.213,579.427,574.909,0.0
49137.0,STARLINK-3055,PAYLOAD,2022-03-17 06:00:00,14.96743457,0.0003245,69.9979,338.0780000000001,282.678,308.7739,-0.00048485,-5.641e-05,0.0,0 STARLINK-3055,1 49137U 21082H   22076.25001157 -.00005641  00000-0 -48485-3 0  9995,2 49137  69.9979 338.0780 0003245 282.6780 308.7739 14.96743457 28783,6955.103,96.209,579.225,574.712,0.0
49137.0,STARLINK-3055,PAYLOAD,2022-03-17 14:00:01,14.96716105,0.0003275,69.998,337.2396,276.6169,310.425,0.00064336,7.28e-05,0.0,0 STARLINK-3055,1 49137U 21082H   22076.58334491  .00007280  00000-0  64336-3 0  9993,2 49137  69.9980 337.2396 0003275 276.6169 310.4250 14.96716105  3596,6955.188,96.211,579.331,574.775,0.0
49137.0,STARLINK-3055,PAYLOAD,2022-03-17 22:00:00,14.9672241,0.0003386,69.998,336.4012,278.829,303.766,-0.0024257,-0.00027751,0.0,0 STARLINK-3055,1 49137U 21082H   22076.91667824 -.00027751  00000-0 -24257-2 0  9993,2 49137  69.9980 336.4012 0003386 278.8290 303.7660 14.96722410  3602,6955.169,96.21,579.389,574.679,0.0
49137.0,STARLINK-3055,PAYLOAD,2022-03-18 08:00:01,14.96734885,0.0003301,69.9975,335.3532,281.4094,25.605,-0.0043917,-0.00050026,0.0,0 STARLINK-3055,1 49137U 21082H   22077.33334491 -.00050026  00000-0 -43917-2 0  9996,2 49137  69.9975 335.3532 0003301 281.4094  25.6050 14.96734885 28946,6955.13,96.209,579.2909999999998,574.6990000000002,0.0
49137.0,STARLINK-3055,PAYLOAD,2022-03-18 14:00:01,14.96681072,0.0003268,69.9975,334.7245,276.9228,296.7637,0.0058243,0.00067158,0.0,0 STARLINK-3055,1 49137U 21082H   22077.58334491  .00067158  00000-0  58243-2 0  9993,2 49137  69.9975 334.7245 0003268 276.9228 296.7637 14.96681072  3618,6955.297,96.213,579.435,574.889,0.0
49137.0,STARLINK-3055,PAYLOAD,2022-03-18 22:00:00,14.96728528,0.0003307,69.9976,333.8859,279.6287,289.5948,-0.0020292,-0.00023248,0.0,0 STARLINK-3055,1 49137U 21082H   22077.91667824 -.00023248  00000-0 -20292-2 0  9996,2 49137  69.9976 333.8859 0003307 279.6287 289.5948 14.96728528 29036,6955.15,96.21,579.315,574.715,0.0
49137.0,STARLINK-3055,PAYLOAD,2022-03-19 14:00:01,14.96701227,0.0003161,69.997,332.209,277.0144,283.3199,0.003123,0.00035824,0.0,0 STARLINK-3055,1 49137U 21082H   22078.58334491  .00035824  00000-0  31230-2 0  9996,2 49137  69.9970 332.2090 0003161 277.0144 283.3199 14.96701227 29130,6955.234,96.212,579.298,574.901,0.0
49137.0,STARLINK-3055,PAYLOAD,2022-03-19 22:00:01,14.96714823,0.0003149,69.9972,331.3704,280.0822,275.8663,-0.0027953,-0.0003194,0.0,0 STARLINK-3055,1 49137U 21082H   22078.91668981 -.00031940  00000-0 -27953-2 0  9991,2 49137  69.9972 331.3704 0003149 280.0822 275.8663 14.96714823  3610,6955.191999999999,96.211,579.247,574.867,0.0
49137.0,STARLINK-3055,PAYLOAD,2022-03-20 06:00:00,14.96716602,0.0003122,69.9967,330.5319,282.9518,268.4619,-0.002281,-0.00026103,0.0,0 STARLINK-3055,1 49137U 21082H   22079.25001157 -.00026103  00000-0 -22810-2 0  9997,2 49137  69.9967 330.5319 0003122 282.9518 268.4619 14.96716602 29233,6955.187,96.211,579.2230000000002,574.88,0.0
49137.0,STARLINK-3055,PAYLOAD,2022-03-20 14:00:01,14.96675818,0.0003074,69.9966,329.6933,276.3413,270.6169,0.0053306,0.00061398,0.0,0 STARLINK-3055,1 49137U 21082H   22079.58334491  .00061398  00000-0  53306-2 0  9990,2 49137  69.9966 329.6933 0003074 276.3413 270.6169 14.96675818  3588,6955.313,96.213,579.316,575.04,0.0
49137.0,STARLINK-3055,PAYLOAD,2022-03-20 22:00:01,14.96718493,0.0003134,69.9968,328.8547,279.2947,263.2582,-0.0014949,-0.00017161,0.0,0 STARLINK-3055,1 49137U 21082H   22079.91668981 -.00017161  00000-0 -14949-2 0  9992,2 49137  69.9968 328.8547 0003134 279.2947 263.2582 14.96718493 29338,6955.181,96.21,579.226,574.866,0.0
49137.0,STARLINK-3055,PAYLOAD,2022-03-21 14:00:01,14.96689554,0.0003115,69.9964,327.1774,275.6378,257.9471,0.0052928,0.0006098,0.0,0 STARLINK-3055,1 49137U 21082H   22080.58334491  .00060980  00000-0  52928-2 0  9997,2 49137  69.9964 327.1774 0003115 275.6378 257.9471 14.96689554 29438,6955.27,96.212,579.302,574.969,0.0
